{"type": "FeatureCollection", "features": [ {"type": "Feature", "properties": {"norad_id": 59598, "name": "GSAT0225 (GALILEO 29)", "group": "gnss", "lat": 2.298225806715377, "lon": 107.77278793168227, "alt_km": 23228.19422089901, "timestamp": "2025-12-16T23:36:36.440297+00:00", "meta": {"OBJECT_NAME": "GSAT0225 (GALILEO 29)", "OBJECT_ID": "2024-079A", "EPOCH": "2025-12-13T14:17:14.853120", "MEAN_MOTION": 1.7047497, "ECCENTRICITY": 0.00020845, "INCLINATION": 55.0023, "RA_OF_ASC_NODE": 106.2711, "ARG_OF_PERICENTER": 178.8578, "MEAN_ANOMALY": 264.3288, "EPHEMERIS_TYPE": 0, "CLASSIFICATION_TYPE": "U", "NORAD_CAT_ID": 59598, "ELEMENT_SET_NO": 999, "REV_AT_EPOCH": 1015, "BSTAR": 0, "MEAN_MOTION_DOT": -1e-08, "MEAN_MOTION_DDOT": 0}, "tle": {"line1": "1 59598U 24079A   25347.59531080 -.00000001  00000+0  00000+0 0  9990", "line2": "2 59598  55.0023 106.2711 0002084 178.8578 264.3288  1.70474970 10158"}}, "geometry": {"type": "Point", "coordinates": [107.77278793168227, 2.298225806715377]}}, {"type": "Feature", "properties": {"norad_id": 59600, "name": "GSAT0227 (GALILEO 30)", "group": "gnss", "lat": -50.480824863471604, "lon": -15.784689067424292, "alt_km": 23234.12645366342, "timestamp": "2025-12-16T23:36:36.440312+00:00", "meta": {"OBJECT_NAME": "GSAT0227 (GALILEO 30)", "OBJECT_ID": "2024-079C", "EPOCH": "2025-12-15T23:44:48.318432", "MEAN_MOTION": 1.70474874, "ECCENTRICITY": 0.00030998, "INCLINATION": 54.9987, "RA_OF_ASC_NODE": 106.2033, "ARG_OF_PERICENTER": 115.4904, "MEAN_ANOMALY": 244.5024, "EPHEMERIS_TYPE": 0, "CLASSIFICATION_TYPE": "U", "NORAD_CAT_ID": 59600, "ELEMENT_SET_NO": 999, "REV_AT_EPOCH": 1024, "BSTAR": 0, "MEAN_MOTION_DOT": -9e-08, "MEAN_MOTION_DDOT": 0}, "tle": {"line1": "1 59600U 24079C   25349.98944813 -.00000009  00000+0  00000+0 0  9999", "line2": "2 59600  54.9987 106.2033 0003099 115.4904 244.5024  1.70474874 10244"}}, "geometry": {"type": "Point", "coordinates": [-15.784689067424292, -50.480824863471604]}}, {"type": "Feature", "properties": {"norad_id": 61182, "name": "GSAT0232 (GALILEO 32)", "group": "gnss", "lat": 54.8878621571642, "lon": -53.01017958885141, "alt_km": 23219.131290222344, "timestamp": "2025-12-16T23:36:36.440324+00:00", "meta": {"OBJECT_NAME": "GSAT0232 (GALILEO 32)", "OBJECT_ID": "2024-167A", "EPOCH": "2025-12-15T09:09:10.050912", "MEAN_MOTION": 1.70473627, "ECCENTRICITY": 0.00018812, "INCLINATION": 55.2399, "RA_OF_ASC_NODE": 226.3583, "ARG_OF_PERICENTER": 210.2547, "MEAN_ANOMALY": 331.0661, "EPHEMERIS_TYPE": 0, "CLASSIFICATION_TYPE": "U", "NORAD_CAT_ID": 61182, "ELEMENT_SET_NO": 999, "REV_AT_EPOCH": 774, "BSTAR": 0, "MEAN_MOTION_DOT": 4.1e-07, "MEAN_MOTION_DDOT": 0}, "tle": {"line1": "1 61182U 24167A   25349.38136633  .00000041  00000+0  00000+0 0  9997", "line2": "2 61182  55.2399 226.3583 0001881 210.2547 331.0661  1.70473627  7746"}}, "geometry": {"type": "Point", "coordinates": [-53.01017958885141, 54.8878621571642]}}, {"type": "Feature", "properties": {"norad_id": 61183, "name": "GSAT0226 (GALILEO 31)", "group": "gnss", "lat": -14.187690676264086, "lon": 56.431995571300476, "alt_km": 23224.03463164, "timestamp": "2025-12-16T23:36:36.440336+00:00", "meta": {"OBJECT_NAME": "GSAT0226 (GALILEO 31)", "OBJECT_ID": "2024-167B", "EPOCH": "2025-12-12T20:26:08.685024", "MEAN_MOTION": 1.70473602, "ECCENTRICITY": 8.42e-05, "INCLINATION": 55.2391, "RA_OF_ASC_NODE": 226.433, "ARG_OF_PERICENTER": 113.0334, "MEAN_ANOMALY": 68.3038, "EPHEMERIS_TYPE": 0, "CLASSIFICATION_TYPE": "U", "NORAD_CAT_ID": 61183, "ELEMENT_SET_NO": 999, "REV_AT_EPOCH": 767, "BSTAR": 0, "MEAN_MOTION_DOT": 1.9e-07, "MEAN_MOTION_DDOT": 0}, "tle": {"line1": "1 61183U 24167B   25346.85148941  .00000019  00000+0  00000+0 0  9997", "line2": "2 61183  55.2391 226.4330 0000842 113.0334  68.3038  1.70473602  7673"}}, "geometry": {"type": "Point", "coordinates": [56.431995571300476, -14.187690676264086]}}, {"type": "Feature", "properties": {"norad_id": 61186, "name": "BEIDOU-3 M25 (C47)", "group": "gnss", "lat": 45.09936834382557, "lon": -6.045684300844108, "alt_km": 21530.674439691607, "timestamp": "2025-12-16T23:36:36.440348+00:00", "meta": {"OBJECT_NAME": "BEIDOU-3 M25 (C47)", "OBJECT_ID": "2024-168B", "EPOCH": "2025-12-16T08:41:42.146304", "MEAN_MOTION": 1.86230282, "ECCENTRICITY": 0.00054361, "INCLINATION": 54.6387, "RA_OF_ASC_NODE": 308.5944, "ARG_OF_PERICENTER": 298.6165, "MEAN_ANOMALY": 64.9369, "EPHEMERIS_TYPE": 0, "CLASSIFICATION_TYPE": "U", "NORAD_CAT_ID": 61186, "ELEMENT_SET_NO": 999, "REV_AT_EPOCH": 838, "BSTAR": 0, "MEAN_MOTION_DOT": -9.6e-07, "MEAN_MOTION_DDOT": 0}, "tle": {"line1": "1 61186U 24168B   25350.36229336 -.00000096  00000+0  00000+0 0  9996", "line2": "2 61186  54.6387 308.5944 0005436 298.6165  64.9369  1.86230282  8383"}}, "geometry": {"type": "Point", "coordinates": [-6.045684300844108, 45.09936834382557]}}, {"type": "Feature", "properties": {"norad_id": 61187, "name": "BEIDOU-3 M27 (C49)", "group": "gnss", "lat": -12.347404025284039, "lon": 137.47153685528284, "alt_km": 21535.492057149124, "timestamp": "2025-12-16T23:36:36.440359+00:00", "meta": {"OBJECT_NAME": "BEIDOU-3 M27 (C49)", "OBJECT_ID": "2024-168C", "EPOCH": "2025-12-16T03:54:25.551072", "MEAN_MOTION": 1.86230425, "ECCENTRICITY": 0.00024772, "INCLINATION": 54.6343, "RA_OF_ASC_NODE": 308.5849, "ARG_OF_PERICENTER": 338.6924, "MEAN_ANOMALY": 26.0527, "EPHEMERIS_TYPE": 0, "CLASSIFICATION_TYPE": "U", "NORAD_CAT_ID": 61187, "ELEMENT_SET_NO": 999, "REV_AT_EPOCH": 585, "BSTAR": 0, "MEAN_MOTION_DOT": -9.7e-07, "MEAN_MOTION_DDOT": 0}, "tle": {"line1": "1 61187U 24168C   25350.16279573 -.00000097  00000+0  00000+0 0  9994", "line2": "2 61187  54.6343 308.5849 0002477 338.6924  26.0527  1.86230425  5853"}}, "geometry": {"type": "Point", "coordinates": [137.47153685528284, -12.347404025284039]}}, {"type": "Feature", "properties": {"norad_id": 62339, "name": "GPS BIII-7  (PRN 01)", "group": "gnss", "lat": 54.62148221714809, "lon": 63.266358146653005, "alt_km": 20181.109559358138, "timestamp": "2025-12-16T23:36:36.440370+00:00", "meta": {"OBJECT_NAME": "GPS BIII-7  (PRN 01)", "OBJECT_ID": "2024-242A", "EPOCH": "2025-12-15T08:51:56.700864", "MEAN_MOTION": 2.0056809, "ECCENTRICITY": 0.00123957, "INCLINATION": 54.9228, "RA_OF_ASC_NODE": 341.6333, "ARG_OF_PERICENTER": 345.2723, "MEAN_ANOMALY": 14.1201, "EPHEMERIS_TYPE": 0, "CLASSIFICATION_TYPE": "U", "NORAD_CAT_ID": 62339, "ELEMENT_SET_NO": 999, "REV_AT_EPOCH": 756, "BSTAR": 0, "MEAN_MOTION_DOT": -9.1e-07, "MEAN_MOTION_DDOT": 0}, "tle": {"line1": "1 62339U 24242A   25349.36940626 -.00000091  00000+0  00000+0 0  9995", "line2": "2 62339  54.9228 341.6333 0012395 345.2723  14.1201  2.00568090  7561"}}, "geometry": {"type": "Point", "coordinates": [63.266358146653005, 54.62148221714809]}}, {"type": "Feature", "properties": {"norad_id": 62850, "name": "NVS-02 (IRNSS-1K)", "group": "gnss", "lat": -13.645633550832297, "lon": -174.5904801089839, "alt_km": 34679.924671585984, "timestamp": "2025-12-16T23:36:36.440382+00:00", "meta": {"OBJECT_NAME": "NVS-02 (IRNSS-1K)", "OBJECT_ID": "2025-020A", "EPOCH": "2025-12-15T18:21:21.469248", "MEAN_MOTION": 2.17597507, "ECCENTRICITY": 0.73475549, "INCLINATION": 20.9754, "RA_OF_ASC_NODE": 326.5645, "ARG_OF_PERICENTER": 28.1968, "MEAN_ANOMALY": 357.0206, "EPHEMERIS_TYPE": 0, "CLASSIFICATION_TYPE": "U", "NORAD_CAT_ID": 62850, "ELEMENT_SET_NO": 999, "REV_AT_EPOCH": 698, "BSTAR": 0.00030510821, "MEAN_MOTION_DOT": 5.35e-06, "MEAN_MOTION_DDOT": 0}, "tle": {"line1": "1 62850U 25020A   25349.76483182  .00000535  00000+0  30511-3 0  9997", "line2": "2 62850  20.9754 326.5645 7347554  28.1968 357.0206  2.17597507  6989"}}, "geometry": {"type": "Point", "coordinates": [-174.5904801089839, -13.645633550832297]}}, {"type": "Feature", "properties": {"norad_id": 62876, "name": "QZS-6 (QZSS/PRN 200)", "group": "gnss", "lat": 0.03158234304082815, "lon": 170.51685167555743, "alt_km": 35787.20949016977, "timestamp": "2025-12-16T23:36:36.440397+00:00", "meta": {"OBJECT_NAME": "QZS-6 (QZSS/PRN 200)", "OBJECT_ID": "2025-023A", "EPOCH": "2025-12-16T03:30:56.908800", "MEAN_MOTION": 1.00273796, "ECCENTRICITY": 0.00015403, "INCLINATION": 0.0401, "RA_OF_ASC_NODE": 63.7686, "ARG_OF_PERICENTER": 211.3115, "MEAN_ANOMALY": 313.22, "EPHEMERIS_TYPE": 0, "CLASSIFICATION_TYPE": "U", "NORAD_CAT_ID": 62876, "ELEMENT_SET_NO": 999, "REV_AT_EPOCH": 312, "BSTAR": 0, "MEAN_MOTION_DOT": -2.11e-06, "MEAN_MOTION_DDOT": 0}, "tle": {"line1": "1 62876U 25023A   25350.14649200 -.00000211  00000+0  00000+0 0  9995", "line2": "2 62876   0.0401  63.7686 0001540 211.3115 313.2200  1.00273796  3128"}}, "geometry": {"type": "Point", "coordinates": [170.51685167555743, 0.03158234304082815]}}, {"type": "Feature", "properties": {"norad_id": 63130, "name": "COSMOS 2584 (704K)", "group": "gnss", "lat": -55.11278152316491, "lon": 37.03993565145942, "alt_km": 19131.593695899868, "timestamp": "2025-12-16T23:36:36.440413+00:00", "meta": {"OBJECT_NAME": "COSMOS 2584 (704K)", "OBJECT_ID": "2025-042A", "EPOCH": "2025-12-14T17:19:43.603680", "MEAN_MOTION": 2.13103043, "ECCENTRICITY": 0.00076907, "INCLINATION": 64.977, "RA_OF_ASC_NODE": 79.0784, "ARG_OF_PERICENTER": 217.9412, "MEAN_ANOMALY": 142.0178, "EPHEMERIS_TYPE": 0, "CLASSIFICATION_TYPE": "U", "NORAD_CAT_ID": 63130, "ELEMENT_SET_NO": 999, "REV_AT_EPOCH": 611, "BSTAR": 0, "MEAN_MOTION_DOT": -5.6e-07, "MEAN_MOTION_DDOT": 0}, "tle": {"line1": "1 63130U 25042A   25348.72203245 -.00000056  00000+0  00000+0 0  9993", "line2": "2 63130  64.9770  79.0784 0007690 217.9412 142.0178  2.13103043  6119"}}, "geometry": {"type": "Point", "coordinates": [37.03993565145942, -55.11278152316491]}}]}